{
  "norad_id": 41752,
  "name": "INSAT-3DR",
  "history": [
    {
      "epoch": "2026-03-28T21:17:38.519232Z",
      "apogee_km": 35840.21119810999,
      "perigee_km": 35732.99890849106,
      "latitude_deg": 0.0958035380388741,
      "longitude_deg": 73.86477938407481,
      "height_km": 35762.007181305366,
      "semi_major_axis_km": 42164.74205330053,
      "eccentricity": 0.00127135,
      "inclination_deg": 0.1118,
      "raan_deg": 87.6678,
      "arg_perigee_deg": 195.0765,
      "mean_anomaly_deg": 296.9383,
      "mean_motion_rev_day": 1.00271749
    },
    {
      "epoch": "2026-03-29T03:06:59.343264Z",
      "apogee_km": 35840.13657991183,
      "perigee_km": 35733.05502448737,
      "latitude_deg": -0.05054075910702128,
      "longitude_deg": 74.05440652059909,
      "height_km": 35737.57909674977,
      "semi_major_axis_km": 42164.7328021996,
      "eccentricity": 0.0012698,
      "inclination_deg": 0.1124,
      "raan_deg": 87.6307,
      "arg_perigee_deg": 195.1229,
      "mean_anomaly_deg": 24.5052,
      "mean_motion_rev_day": 1.00271782
    }
  ]
}